satname,norad_id,inclination_deg,eccentricity,mean_motion_rev_per_day,perigee_km,apogee_km,l1,l2
STARLINK-1202,45183,53.163,0.0001272,15.30193781,474.36188955004036,476.1053870404239,1 45183U 20012F   26076.06909142 -.00000990  00000+0 -21323-4 0  9992,2 45183  53.1630   4.9763 0001272  87.7360 272.3786 15.30193781336086
STARLINK-1216,45185,53.1624,0.0001144,15.30218715,474.37517328806734,475.9432074564238,1 45185U 20012H   26076.51679848 -.00008245  00000+0 -26641-3 0  9999,2 45185  53.1624   2.8740 0001144  88.0945 272.0187 15.30218715336092
STARLINK-1225,45187,53.1618,0.0001312,15.30183988,474.3637127179436,476.16204484613536,1 45187U 20012K   26076.51372742  .00003389  00000+0  12656-3 0  9997,2 45187  53.1618   3.3283 0001312  90.3679 269.7473 15.30183988336131
STARLINK-1230,45189,53.1628,0.0001211,15.30165967,474.48673446465637,476.14664094781983,1 45189U 20012M   26076.78446963  .00001979  00000+0  79000-4 0  9995,2 45189  53.1628   2.1304 0001211  91.2333 268.8807 15.30165967333405
STARLINK-1234,45190,53.0422,0.0004724,15.64429268,371.6905497841208,378.0708008837764,1 45190U 20012N   26076.91670139  .00034586  00000+0  35756-3 0  9995,2 45190  53.0422 285.0187 0004724 321.8343 143.5908 15.64429268  5854
STARLINK-1269,45197,53.1618,0.0001323,15.3018905,474.34106153621997,476.1544671448637,1 45197U 20012V   26076.78128007  .00002039  00000+0  80961-4 0  9996,2 45197  53.1618   2.0061 0001323  74.2386 285.8761 15.30189050336157
STARLINK-1154,45198,53.0495,0.0007292,15.47510908,419.05011766425105,428.97036920407663,1 45198U 20012W   26076.43937515  .00073464  00000+0  14005-2 0  9995,2 45198  53.0495 332.9971 0007292 123.6408 236.5295 15.47510908336490
STARLINK-1199,45201,53.161,0.0001149,15.3019065,474.4555336156254,476.03044033663264,1 45201U 20012Z   26076.88120544  .00003560  00000+0  13229-3 0  9993,2 45201  53.1610 345.7901 0001149  97.9555 262.1576 15.30190650336410
STARLINK-1209,45206,53.0462,0.0006712,15.52651374,404.4328812332187,413.5439183699127,1 45206U 20012AE  26076.85390704  .00079509  00000+0  12626-2 0  9997,2 45206  53.0462 294.1561 0006712 298.8027  61.2308 15.52651374336189
STARLINK-1231,45212,53.0484,0.0004107,15.21888536,497.3195659199664,502.9693863244538,1 45212U 20012AL  26076.43103497  .00035419  00000+0  15432-2 0  9999,2 45212  53.0484 340.2161 0004107 116.6766 243.4651 15.21888536336400
STARLINK-1271,45217,53.1611,9.89e-05,15.30179058,474.5997964657863,475.9554018735025,1 45217U 20012AR  26076.48723506  .00004623  00000+0  16823-3 0  9997,2 45217  53.1611 347.7440 0000989  63.2698 296.8404 15.30179058336359
STARLINK-1191,45222,53.1589,9.52e-05,15.30837958,472.6586455255947,473.96316120639585,1 45222U 20012AW  26076.83252666  .00043698  00000+0  14500-2 0  9990,2 45222  53.1589 320.9899 0000952 123.1537 236.9555 15.30837958336765
STARLINK-1212,45223,53.0489,0.0005509,15.53756917,402.03127360692906,409.5057807167559,1 45223U 20012AX  26076.83112087  .00077906  00000+0  11894-2 0  9995,2 45223  53.0489 310.8489 0005509 149.0834 211.0501 15.53756917336908
STARLINK-1215,45225,53.1597,0.0001249,15.30188491,474.3934454686605,476.10542139973313,1 45225U 20012AZ  26076.88538072  .00007351  00000+0  26016-3 0  9998,2 45225  53.1597 320.2381 0001249  75.5749 284.5391 15.30188491336736
STARLINK-1221,45227,53.0644,0.0003467,15.42213777,437.21345844711686,441.94086144562334,1 45227U 20012BB  26076.42960975  .00014757  00000+0  34725-3 0  9995,2 45227  53.0644 232.9291 0003467  60.8757 299.2595 15.42213777337907
STARLINK-1222,45228,53.056,0.0004035,15.50094558,413.7081197056714,419.19135120118244,1 45228U 20012BC  26076.87536262  .00020321  00000+0  36229-3 0  9998,2 45228  53.0560 303.5530 0004035 112.2898 247.8538 15.50094558336892
STARLINK-1226,45229,53.1593,0.0001607,15.30908412,471.99970067594495,474.201688470981,1 45229U 20012BD  26076.84808596  .00038116  00000+0  12645-2 0  9994,2 45229  53.1593 320.7083 0001607  59.9348 300.1813 15.30908412336668
STARLINK-1227,45230,53.1609,5.76e-05,15.31491129,470.9681683885383,471.75723075392943,1 45230U 20012BE  26076.86582164  .00015991  00000+0  52935-3 0  9991,2 45230  53.1609 320.8311 0000576 139.0479 221.0566 15.31491129336784
STARLINK-1246,45235,53.1632,0.0001451,15.30185402,474.2642290527374,476.25308447232965,1 45235U 20012BK  26076.79071568  .00003294  00000+0  12336-3 0  9993,2 45235  53.1632   1.6211 0001451  75.9198 284.1964 15.30185402336210
STARLINK-1270,45237,53.0492,0.0003281,15.48420955,419.1138738755917,423.57569382215297,1 45237U 20012BM  26076.84783717  .00066987  00000+0  12399-2 0  9993,2 45237  53.0492 308.5426 0003281 135.1866 224.9407 15.48420955336933
STARLINK-1279,45360,53.043,0.000186,15.58510959,390.70663016043454,393.2251084278114,1 45360U 20019A   26076.13945243  .00091295  00000+0  11667-2 0  9990,2 45360  53.0430  62.5146 0001860 101.3331 258.7890 15.58510959331831
STARLINK-1301,45361,53.0413,5.85e-05,15.65827504,370.4651018368313,371.2547344762552,1 45361U 20019B   26076.25772427  .00046230  00000+0  44989-3 0  9999,2 45361  53.0413  66.9041 0000585 191.7933 168.3068 15.65827504331792
STARLINK-1262,45366,53.1564,0.0001442,15.29356346,476.7466093312614,478.7238428812707,1 45366U 20019G   26076.84067655 -.00001048  00000+0 -23973-4 0  9990,2 45366  53.1564 127.2968 0001442 116.0332 244.0817 15.29356346331009
STARLINK-1273,45367,53.0503,0.0003558,15.4552874,427.4026443842531,432.2471900845567,1 45367U 20019H   26076.81510455  .00060550  00000+0  12402-2 0  9993,2 45367  53.0503 116.1233 0003558  27.9947 332.1250 15.45528740331159
STARLINK-1276,45368,53.073,0.0001503,15.11142478,531.6758713558665,533.7532733385142,1 45368U 20019J   26076.55866701  .00014430  00000+0  86650-3 0  9996,2 45368  53.0730 131.0849 0001503  91.2151 268.9012 15.11142478330929
STARLINK-1277,45369,53.0506,0.0005509,15.50368182,411.9075648614462,419.39295966700774,1 45369U 20019K   26076.82056883  .00070312  00000+0  12140-2 0  9992,2 45369  53.0506 113.6206 0005509  36.7218 323.4167 15.50368182331195
STARLINK-1281,45370,53.1601,0.0001667,15.30191928,474.0967132545693,476.3816288700018,1 45370U 20019L   26076.50921263 -.00000734  00000+0 -12636-4 0  9997,2 45370  53.1601 128.9670 0001667  94.9664 265.1528 15.30191928330956
STARLINK-1300,45374,53.155,0.0001303,15.29350542,476.8592493835904,478.64589420599987,1 45374U 20019Q   26076.52988033  .00000784  00000+0  39508-4 0  9991,2 45374  53.1550 128.8626 0001303  82.0169 278.0979 15.29350542330958
STARLINK-1302,45375,53.0523,0.0003731,15.5516533,399.1425312748297,404.20162480886484,1 45375U 20019R   26076.80711709  .00087148  00000+0  12620-2 0  9990,2 45375  53.0523 112.5537 0003731 350.8520   9.2421 15.55165330331206
STARLINK-1304,45376,53.0483,0.000337,15.49633089,415.508355874068,420.08881645914516,1 45376U 20019S   26076.38793153  .00069590  00000+0  12338-2 0  9994,2 45376  53.0483 112.6159 0003370  11.6983 348.4103 15.49633089331161
STARLINK-1305,45377,53.0433,0.0003249,15.54641817,400.9907685962098,405.39727749498434,1 45377U 20019T   26076.74984064  .00085660  00000+0  12649-2 0  9999,2 45377  53.0433  93.3527 0003249 103.7861 256.3510 15.54641817331471
STARLINK-1319,45379,53.0436,0.000282,15.66148707,368.034157372932,371.84007117338115,1 45379U 20019V   26076.84122202  .00043166  00000+0  41518-3 0  9993,2 45379  53.0436  89.6607 0002820  72.0801 288.0521 15.66148707331533
STARLINK-1266,45383,53.0486,0.0004748,15.46758986,422.98383241093416,429.44524463191556,1 45383U 20019Z   26076.35112295  .00064518  00000+0  12655-2 0  9998,2 45383  53.0486  96.4156 0004748  41.3439 318.7926 15.46758986331382
STARLINK-1267,45384,53.0508,0.0002169,15.51252276,411.59571510310343,414.5417401477471,1 45384U 20019AA  26076.74145498  .00080499  00000+0  13447-2 0  9999,2 45384  53.0508  88.3384 0002169 319.9575  40.1273 15.51252276331536
STARLINK-1272,45386,53.0442,0.0002658,15.57738698,392.40315030314923,396.00332637384963,1 45386U 20019AC  26076.17721944  .00048250  00000+0  64124-3 0  9992,2 45386  53.0442  73.4557 0002658 123.6109 236.5156 15.57738698331699
STARLINK-1274,45387,53.0263,0.0002505,15.48404062,419.6909558226889,423.09752097312685,1 45387U 20019AD  26076.21269695  .00077337  00000+0  14292-2 0  9996,2 45387  53.0263  66.9389 0002505 254.2972 105.7759 15.48404062331782
STARLINK-1280,45388,53.0416,0.0001667,15.66441448,367.97159152365475,370.22111912432047,1 45388U 20019AE  26076.43679475  .00045941  00000+0  43626-3 0  9992,2 45388  53.0416  84.4048 0001667  86.1422 273.9784 15.66441448331550
STARLINK-1283,45389,53.0432,0.0002625,15.58235975,390.9849709060618,394.5396930553525,1 45389U 20019AF  26076.22856285  .00102397  00000+0  13195-2 0  9992,2 45389  53.0432  73.4095 0002625 271.5600  88.5111 15.58235975331700
STARLINK-1284,45390,53.0473,0.0004651,15.53189039,404.26602027206445,410.57794723875395,1 45390U 20019AG  26076.21013152  .00075782  00000+0  11818-2 0  9998,2 45390  53.0473  94.7646 0004651  42.2849 317.8519 15.53189039331393
STARLINK-1297,45395,53.0467,0.0005709,15.557933,395.978032703164,403.71713550129243,1 45395U 20019AM  26076.85190103  .00087215  00000+0  12336-2 0  9995,2 45395  53.0467  91.2392 0005709  48.0804 312.0692 15.55793300330685
STARLINK-1307,45397,53.0539,0.0002684,15.50434878,413.63202567479766,417.2788260890111,1 45397U 20019AP  26076.74138720  .00018263  00000+0  32263-3 0  9991,2 45397  53.0539  92.0970 0002684  55.0824 305.0436 15.50434878331302
STARLINK-1255,45399,53.041,0.0001609,15.53356152,405.8435880275292,408.02702429565306,1 45399U 20019AR  26076.22045526  .00086380  00000+0  13365-2 0  9993,2 45399  53.0410  66.4565 0001609  28.3120 331.7977 15.53356152331605
STARLINK-1260,45404,53.1601,8.81e-05,15.30184783,474.6567206947766,475.8642893351598,1 45404U 20019AW  26076.73144750  .00002874  00000+0  10918-3 0  9993,2 45404  53.1601  91.8875 0000881  80.9155 279.1945 15.30184783331204
